SL-14 R/B               
1 16792U 86046B   26065.10279496  .00000542  00000+0  59679-4 0  9996
2 16792  82.4782  83.5720 0021767 237.8940 122.0164 14.85585901125874
SL-14 R/B               
1 16882U 86055B   26065.42574119  .00000609  00000+0  67364-4 0  9995
2 16882  82.5207 129.7420 0018455 347.6741  22.7388 14.85639349118889
SL-14 R/B               
1 17567U 87024B   26065.07017512  .00000517  00000+0  56140-4 0  9991
2 17567  82.5250  96.1667 0016668 273.0237  86.9072 14.86127647 87593
COSMOS 1833             
1 17589U 87027A   26065.46237500 -.00000140  00000+0 -48978-4 0  9996
2 17589  70.9230 332.8013 0024423 219.0330 140.9030 14.13055581  9869
SL-16 R/B               
1 17590U 87027B   26065.02189145 -.00000138  00000+0 -44721-4 0  9990
2 17590  71.0014 284.2247 0003586 150.8635 209.2690 14.17165768 14825
SL-14 R/B               
1 17912U 87038B   26065.13065184  .00000517  00000+0  57062-4 0  9999
2 17912  82.5007 300.1608 0019379 171.9810 188.1720 14.85365319 78702
COSMOS 1844             
1 17973U 87041A   26065.35954430 -.00000112  00000+0 -32770-4 0  9997
2 17973  70.8996  41.1989 0029813  22.7812 337.4624 14.14552969  3115
SL-14 R/B               
1 18153U 87055B   26065.31027558  .00000801  00000+0  89413-4 0  9990
2 18153  82.5030 352.2153 0021434  28.6582 331.5807 14.85624829 69432
COSMOS 1867             
1 18187U 87060A   26065.08791590 -.00000009  00000+0  34237-4 0  9996
2 18187  65.0117 316.7920 0014448 278.4415  81.5032 14.31502415 19428
SL-14 R/B               
1 18749U 88001B   26065.64212841  .00000851  00000+0  95624-4 0  9996
2 18749  82.5147 198.2257 0016685 246.5540 113.3923 14.85523654 41576
COSMOS 1933             
1 18958U 88020A   26064.96676951  .00004946  00000+0  24226-3 0  9997
2 18958  82.5097 254.5962 0003530 196.2734 163.8387 15.17942396 49668
